0 OV1-20/OV1-21 DEB
1 05384U 71067N   13281.83174752  .00000222  00000-0  87916-4 0  5237
2 05384 087.6346 207.8743 0080649 352.8218 064.0825 14.23104188183967
0 OV1-20/OV1-21 DEB
1 05384U 71067N   13284.14986383  .00000254  00000-0  10150-3 0  5246
2 05384 087.6349 207.2494 0080367 345.2444 060.2668 14.23106139184299
0 OV1-20/OV1-21 DEB
1 05384U 71067N   13286.20260015  .00000229  00000-0  90881-4 0  5255
2 05384 087.6351 206.6960 0080147 338.4966 136.9027 14.23107094184585
0 OV1-20/OV1-21 DEB
1 05384U 71067N   13288.52508250  .00000344  00000-0  14043-3 0  5262
2 05384 087.6351 206.0702 0079901 330.8452 155.5364 14.23108376184917
0 OV1-20/OV1-21 DEB
1 05384U 71067N   13290.76025478  .00000306  00000-0  12435-3 0  5279
2 05384 087.6349 205.4680 0079683 323.4607 086.8908 14.23109956185230
0 OV1-20/OV1-21 DEB
1 05384U 71067N   13292.80030766  .00000315  00000-0  12810-3 0  5280
2 05384 087.6347 204.9185 0079537 316.6842 098.6461 14.23111038185526
0 OV1-20/OV1-21 DEB
1 05384U 71067N   13295.20245713  .00000302  00000-0  12266-3 0  5299
2 05384 087.6347 204.2713 0079384 308.7117 165.5272 14.23112772185860
